ALOS-2                  
1 39766U 14029A   26071.62695432  .00003042  00000+0  41357-3 0  9991
2 39766  97.9186 170.1811 0001476  96.0572 264.0808 14.79519742637305
YAOGAN-29               
1 41038U 15069A   26071.62830554  .00000684  00000+0  90884-4 0  9996
2 41038  98.0144 100.0658 0001698  31.1478 328.9836 14.82999191556314
ASTRO-H (HITOMI)        
1 41337U 16012A   26070.94768426  .00003441  00000+0  20065-3 0  9996
2 41337  31.0006 341.9769 0009757 353.9535   6.0985 15.10023348552579
HXMT (HUIYAN)           
1 42758U 17034A   26071.27885994  .00007594  00000+0  37814-3 0  9999
2 42758  43.0160   2.2782 0033170 251.7462 107.9775 15.17507493482938
SAOCOM 1A               
1 43641U 18076A   26071.59592992 -.00000149  00000+0 -12182-4 0  9999
2 43641  97.8898 259.7270 0001413  87.7447 272.3928 14.82142265401796
H-2A R/B                
1 43682U 18084L   26071.58914021  .00021397  00000+0  50679-3 0  9991
2 43682  98.8732 289.5971 0025249  15.4084 344.7921 15.41481901406225
SAOCOM 1B               
1 46265U 20059A   26071.62717571  .00000890  00000+0  11835-3 0  9998
2 46265  97.8899 258.8556 0001418  87.2005 272.9370 14.82152926299189
CSS (TIANHE)            
1 48274U 21035A   26071.59506005  .00025773  00000+0  30291-3 0  9993
2 48274  41.4662 190.4821 0006727 289.9358  70.0756 15.60823490278067
COSMOS 2550             
1 48865U 21056A   26071.38646080 -.00000190  00000+0  60433-7 0  9999
2 48865  67.1461  32.7743 0008376 269.6455  90.3740 15.33837293263878
CZ-2C R/B               
1 52794U 22058K   26071.59813706  .00034268  00000+0  49641-3 0  9998
2 52794  50.1891 303.3263 0042118 213.1493 146.6837 15.54457012210587
CZ-2C R/B               
1 54039U 22132E   26071.57486682  .00045817  00000+0  51672-3 0  9991
2 54039  97.2966  74.9796 0020438  81.9771 278.3806 15.62131197190824
GSLV R/B                
1 54149U 22138AN  26071.32817530  .00004253  00000+0  36724-3 0  9992
2 54149  87.3874 165.4788 0023262 137.6817 222.6215 14.96796298184328
