CCSDS_OMM_VERS = 2.0
CREATION_DATE  = 
ORIGINATOR     = 

OBJECT_NAME    = ALOS-2
OBJECT_ID      = 2014-029A
CENTER_NAME    = EARTH
REF_FRAME      = TEME
TIME_SYSTEM    = UTC
MEAN_ELEMENT_THEORY = SGP/SGP4

EPOCH          = 2026-03-12T15:02:48.853248
MEAN_MOTION    = 14.79519742
ECCENTRICITY   = .00014761
INCLINATION    = 97.9186
RA_OF_ASC_NODE = 170.1811
ARG_OF_PERICENTER = 96.0572
MEAN_ANOMALY   = 264.0808

EPHEMERIS_TYPE = 0
CLASSIFICATION_TYPE = U
NORAD_CAT_ID   = 39766
ELEMENT_SET_NO = 999
REV_AT_EPOCH   = 63730
BSTAR          = .41357182E-3
MEAN_MOTION_DOT = .3042E-4
MEAN_MOTION_DDOT = 0

CCSDS_OMM_VERS = 2.0
CREATION_DATE  = 
ORIGINATOR     = 

OBJECT_NAME    = YAOGAN-29
OBJECT_ID      = 2015-069A
CENTER_NAME    = EARTH
REF_FRAME      = TEME
TIME_SYSTEM    = UTC
MEAN_ELEMENT_THEORY = SGP/SGP4

EPOCH          = 2026-03-12T15:04:45.598656
MEAN_MOTION    = 14.82999191
ECCENTRICITY   = .00016988
INCLINATION    = 98.0144
RA_OF_ASC_NODE = 100.0658
ARG_OF_PERICENTER = 31.1478
MEAN_ANOMALY   = 328.9836

EPHEMERIS_TYPE = 0
CLASSIFICATION_TYPE = U
NORAD_CAT_ID   = 41038
ELEMENT_SET_NO = 999
REV_AT_EPOCH   = 55631
BSTAR          = .90883734E-4
MEAN_MOTION_DOT = .684E-5
MEAN_MOTION_DDOT = 0

CCSDS_OMM_VERS = 2.0
CREATION_DATE  = 
ORIGINATOR     = 

OBJECT_NAME    = ASTRO-H (HITOMI)
OBJECT_ID      = 2016-012A
CENTER_NAME    = EARTH
REF_FRAME      = TEME
TIME_SYSTEM    = UTC
MEAN_ELEMENT_THEORY = SGP/SGP4

EPOCH          = 2026-03-11T22:44:39.920064
MEAN_MOTION    = 15.10023348
ECCENTRICITY   = .00097573
INCLINATION    = 31.0006
RA_OF_ASC_NODE = 341.9769
ARG_OF_PERICENTER = 353.9535
MEAN_ANOMALY   = 6.0985

EPHEMERIS_TYPE = 0
CLASSIFICATION_TYPE = U
NORAD_CAT_ID   = 41337
ELEMENT_SET_NO = 999
REV_AT_EPOCH   = 55257
BSTAR          = .20065392E-3
MEAN_MOTION_DOT = .3441E-4
MEAN_MOTION_DDOT = 0

CCSDS_OMM_VERS = 2.0
CREATION_DATE  = 
ORIGINATOR     = 

OBJECT_NAME    = HXMT (HUIYAN)
OBJECT_ID      = 2017-034A
CENTER_NAME    = EARTH
REF_FRAME      = TEME
TIME_SYSTEM    = UTC
MEAN_ELEMENT_THEORY = SGP/SGP4

EPOCH          = 2026-03-12T06:41:33.498816
MEAN_MOTION    = 15.17507493
ECCENTRICITY   = .00331708
INCLINATION    = 43.0160
RA_OF_ASC_NODE = 2.2782
ARG_OF_PERICENTER = 251.7462
MEAN_ANOMALY   = 107.9775

EPHEMERIS_TYPE = 0
CLASSIFICATION_TYPE = U
NORAD_CAT_ID   = 42758
ELEMENT_SET_NO = 999
REV_AT_EPOCH   = 48293
BSTAR          = .37813927E-3
MEAN_MOTION_DOT = .7594E-4
MEAN_MOTION_DDOT = 0

CCSDS_OMM_VERS = 2.0
CREATION_DATE  = 
ORIGINATOR     = 

OBJECT_NAME    = SAOCOM 1A
OBJECT_ID      = 2018-076A
CENTER_NAME    = EARTH
REF_FRAME      = TEME
TIME_SYSTEM    = UTC
MEAN_ELEMENT_THEORY = SGP/SGP4

EPOCH          = 2026-03-12T14:18:08.345088
MEAN_MOTION    = 14.82142265
ECCENTRICITY   = .00014134
INCLINATION    = 97.8898
RA_OF_ASC_NODE = 259.7270
ARG_OF_PERICENTER = 87.7447
MEAN_ANOMALY   = 272.3928

EPHEMERIS_TYPE = 0
CLASSIFICATION_TYPE = U
NORAD_CAT_ID   = 43641
ELEMENT_SET_NO = 999
REV_AT_EPOCH   = 40179
BSTAR          = -.12181745E-4
MEAN_MOTION_DOT = -.149E-5
MEAN_MOTION_DDOT = 0

CCSDS_OMM_VERS = 2.0
CREATION_DATE  = 
ORIGINATOR     = 

OBJECT_NAME    = H-2A R/B
OBJECT_ID      = 2018-084L
CENTER_NAME    = EARTH
REF_FRAME      = TEME
TIME_SYSTEM    = UTC
MEAN_ELEMENT_THEORY = SGP/SGP4

EPOCH          = 2026-03-12T14:08:21.714144
MEAN_MOTION    = 15.41481901
ECCENTRICITY   = .00252496
INCLINATION    = 98.8732
RA_OF_ASC_NODE = 289.5971
ARG_OF_PERICENTER = 15.4084
MEAN_ANOMALY   = 344.7921

EPHEMERIS_TYPE = 0
CLASSIFICATION_TYPE = U
NORAD_CAT_ID   = 43682
ELEMENT_SET_NO = 999
REV_AT_EPOCH   = 40622
BSTAR          = .50679367E-3
MEAN_MOTION_DOT = .21397E-3
MEAN_MOTION_DDOT = 0

CCSDS_OMM_VERS = 2.0
CREATION_DATE  = 
ORIGINATOR     = 

OBJECT_NAME    = SAOCOM 1B
OBJECT_ID      = 2020-059A
CENTER_NAME    = EARTH
REF_FRAME      = TEME
TIME_SYSTEM    = UTC
MEAN_ELEMENT_THEORY = SGP/SGP4

EPOCH          = 2026-03-12T15:03:07.981344
MEAN_MOTION    = 14.82152926
ECCENTRICITY   = .00014187
INCLINATION    = 97.8899
RA_OF_ASC_NODE = 258.8556
ARG_OF_PERICENTER = 87.2005
MEAN_ANOMALY   = 272.9370

EPHEMERIS_TYPE = 0
CLASSIFICATION_TYPE = U
NORAD_CAT_ID   = 46265
ELEMENT_SET_NO = 999
REV_AT_EPOCH   = 29918
BSTAR          = .11834745E-3
MEAN_MOTION_DOT = .89E-5
MEAN_MOTION_DDOT = 0

CCSDS_OMM_VERS = 2.0
CREATION_DATE  = 
ORIGINATOR     = 

OBJECT_NAME    = CSS (TIANHE)
OBJECT_ID      = 2021-035A
CENTER_NAME    = EARTH
REF_FRAME      = TEME
TIME_SYSTEM    = UTC
MEAN_ELEMENT_THEORY = SGP/SGP4

EPOCH          = 2026-03-12T14:16:53.188320
MEAN_MOTION    = 15.60823490
ECCENTRICITY   = .00067279
INCLINATION    = 41.4662
RA_OF_ASC_NODE = 190.4821
ARG_OF_PERICENTER = 289.9358
MEAN_ANOMALY   = 70.0756

EPHEMERIS_TYPE = 0
CLASSIFICATION_TYPE = U
NORAD_CAT_ID   = 48274
ELEMENT_SET_NO = 999
REV_AT_EPOCH   = 27806
BSTAR          = .30291496E-3
MEAN_MOTION_DOT = .25773E-3
MEAN_MOTION_DDOT = 0

CCSDS_OMM_VERS = 2.0
CREATION_DATE  = 
ORIGINATOR     = 

OBJECT_NAME    = COSMOS 2550
OBJECT_ID      = 2021-056A
CENTER_NAME    = EARTH
REF_FRAME      = TEME
TIME_SYSTEM    = UTC
MEAN_ELEMENT_THEORY = SGP/SGP4

EPOCH          = 2026-03-12T09:16:30.213120
MEAN_MOTION    = 15.33837293
ECCENTRICITY   = .00083767
INCLINATION    = 67.1461
RA_OF_ASC_NODE = 32.7743
ARG_OF_PERICENTER = 269.6455
MEAN_ANOMALY   = 90.3740

EPHEMERIS_TYPE = 0
CLASSIFICATION_TYPE = U
NORAD_CAT_ID   = 48865
ELEMENT_SET_NO = 999
REV_AT_EPOCH   = 26387
BSTAR          = .60433E-7
MEAN_MOTION_DOT = -.19E-5
MEAN_MOTION_DDOT = 0

CCSDS_OMM_VERS = 2.0
CREATION_DATE  = 
ORIGINATOR     = 

OBJECT_NAME    = CZ-2C R/B
OBJECT_ID      = 2022-058K
CENTER_NAME    = EARTH
REF_FRAME      = TEME
TIME_SYSTEM    = UTC
MEAN_ELEMENT_THEORY = SGP/SGP4

EPOCH          = 2026-03-12T14:21:19.041984
MEAN_MOTION    = 15.54457012
ECCENTRICITY   = .00421187
INCLINATION    = 50.1891
RA_OF_ASC_NODE = 303.3263
ARG_OF_PERICENTER = 213.1493
MEAN_ANOMALY   = 146.6837

EPHEMERIS_TYPE = 0
CLASSIFICATION_TYPE = U
NORAD_CAT_ID   = 52794
ELEMENT_SET_NO = 999
REV_AT_EPOCH   = 21058
BSTAR          = .49641332E-3
MEAN_MOTION_DOT = .34268E-3
MEAN_MOTION_DDOT = 0

CCSDS_OMM_VERS = 2.0
CREATION_DATE  = 
ORIGINATOR     = 

OBJECT_NAME    = CZ-2C R/B
OBJECT_ID      = 2022-132E
CENTER_NAME    = EARTH
REF_FRAME      = TEME
TIME_SYSTEM    = UTC
MEAN_ELEMENT_THEORY = SGP/SGP4

EPOCH          = 2026-03-12T13:47:48.493248
MEAN_MOTION    = 15.62131197
ECCENTRICITY   = .00204385
INCLINATION    = 97.2966
RA_OF_ASC_NODE = 74.9796
ARG_OF_PERICENTER = 81.9771
MEAN_ANOMALY   = 278.3806

EPHEMERIS_TYPE = 0
CLASSIFICATION_TYPE = U
NORAD_CAT_ID   = 54039
ELEMENT_SET_NO = 999
REV_AT_EPOCH   = 19082
BSTAR          = .51671713E-3
MEAN_MOTION_DOT = .45817E-3
MEAN_MOTION_DDOT = 0

CCSDS_OMM_VERS = 2.0
CREATION_DATE  = 
ORIGINATOR     = 

OBJECT_NAME    = GSLV R/B
OBJECT_ID      = 2022-138AN
CENTER_NAME    = EARTH
REF_FRAME      = TEME
TIME_SYSTEM    = UTC
MEAN_ELEMENT_THEORY = SGP/SGP4

EPOCH          = 2026-03-12T07:52:34.345920
MEAN_MOTION    = 14.96796298
ECCENTRICITY   = .0023262
INCLINATION    = 87.3874
RA_OF_ASC_NODE = 165.4788
ARG_OF_PERICENTER = 137.6817
MEAN_ANOMALY   = 222.6215

EPHEMERIS_TYPE = 0
CLASSIFICATION_TYPE = U
NORAD_CAT_ID   = 54149
ELEMENT_SET_NO = 999
REV_AT_EPOCH   = 18432
BSTAR          = .36724428E-3
MEAN_MOTION_DOT = .4253E-4
MEAN_MOTION_DDOT = 0

